{"type": "FeatureCollection", "features": [ {"type": "Feature", "properties": {"norad_id": 34910, "name": "COSMOS 2251 DEB", "group": "cosmos-2251-debris", "lat": 58.41786479613769, "lon": -120.43662637109583, "alt_km": 1081.1220434141487, "timestamp": "2025-12-21T11:31:43.254936+00:00", "meta": {"OBJECT_NAME": "COSMOS 2251 DEB", "OBJECT_ID": "1993-036ADF", "EPOCH": "2025-12-20T22:59:22.077888", "MEAN_MOTION": 13.37699834, "ECCENTRICITY": 0.0467853, "INCLINATION": 73.8759, "RA_OF_ASC_NODE": 88.4554, "ARG_OF_PERICENTER": 206.0433, "MEAN_ANOMALY": 281.6386, "EPHEMERIS_TYPE": 0, "CLASSIFICATION_TYPE": "U", "NORAD_CAT_ID": 34910, "ELEMENT_SET_NO": 999, "REV_AT_EPOCH": 81634, "BSTAR": 0.00079756, "MEAN_MOTION_DOT": 7.67e-06, "MEAN_MOTION_DDOT": 0}, "tle": {"line1": "1 34910U 93036ADF 25354.95789442  .00000767  00000+0  79756-3 0  9991", "line2": "2 34910  73.8759  88.4554 0467853 206.0433 281.6386 13.37699834816342"}}, "geometry": {"type": "Point", "coordinates": [-120.43662637109583, 58.41786479613769]}}, {"type": "Feature", "properties": {"norad_id": 34911, "name": "COSMOS 2251 DEB", "group": "cosmos-2251-debris", "lat": 49.57100941701153, "lon": 28.460869889907165, "alt_km": 733.0192071319261, "timestamp": "2025-12-21T11:31:43.254947+00:00", "meta": {"OBJECT_NAME": "COSMOS 2251 DEB", "OBJECT_ID": "1993-036ADG", "EPOCH": "2025-12-20T21:51:17.186112", "MEAN_MOTION": 14.59383644, "ECCENTRICITY": 0.0083971, "INCLINATION": 74.0411, "RA_OF_ASC_NODE": 229.173, "ARG_OF_PERICENTER": 352.5096, "MEAN_ANOMALY": 22.3151, "EPHEMERIS_TYPE": 0, "CLASSIFICATION_TYPE": "U", "NORAD_CAT_ID": 34911, "ELEMENT_SET_NO": 999, "REV_AT_EPOCH": 88706, "BSTAR": 8.6791e-05, "MEAN_MOTION_DOT": 3.99e-06, "MEAN_MOTION_DDOT": 0}, "tle": {"line1": "1 34911U 93036ADG 25354.91061558  .00000399  00000+0  86791-4 0  9998", "line2": "2 34911  74.0411 229.1730 0083971 352.5096  22.3151 14.59383644887069"}}, "geometry": {"type": "Point", "coordinates": [28.460869889907165, 49.57100941701153]}}, {"type": "Feature", "properties": {"norad_id": 34913, "name": "COSMOS 2251 DEB", "group": "cosmos-2251-debris", "lat": 66.35225378687363, "lon": -52.67236854934061, "alt_km": 761.6547194496397, "timestamp": "2025-12-21T11:31:43.254957+00:00", "meta": {"OBJECT_NAME": "COSMOS 2251 DEB", "OBJECT_ID": "1993-036ADJ", "EPOCH": "2025-12-20T12:36:12.876192", "MEAN_MOTION": 14.34639669, "ECCENTRICITY": 0.00206652, "INCLINATION": 74.0285, "RA_OF_ASC_NODE": 268.2306, "ARG_OF_PERICENTER": 16.0203, "MEAN_ANOMALY": 164.7367, "EPHEMERIS_TYPE": 0, "CLASSIFICATION_TYPE": "U", "NORAD_CAT_ID": 34913, "ELEMENT_SET_NO": 999, "REV_AT_EPOCH": 65299, "BSTAR": 3.9213996e-05, "MEAN_MOTION_DOT": 8.5e-07, "MEAN_MOTION_DDOT": 0}, "tle": {"line1": "1 34913U 93036ADJ 25354.52514903  .00000085  00000+0  39214-4 0  9994", "line2": "2 34913  74.0285 268.2306 0020665  16.0203 164.7367 14.34639669652992"}}, "geometry": {"type": "Point", "coordinates": [-52.67236854934061, 66.35225378687363]}}, {"type": "Feature", "properties": {"norad_id": 34918, "name": "COSMOS 2251 DEB", "group": "cosmos-2251-debris", "lat": -22.91472981132637, "lon": -69.9825137211248, "alt_km": 687.1932095752809, "timestamp": "2025-12-21T11:31:43.254967+00:00", "meta": {"OBJECT_NAME": "COSMOS 2251 DEB", "OBJECT_ID": "1993-036ADP", "EPOCH": "2025-12-19T03:50:35.567232", "MEAN_MOTION": 14.61304419, "ECCENTRICITY": 0.00332262, "INCLINATION": 74.0713, "RA_OF_ASC_NODE": 301.3767, "ARG_OF_PERICENTER": 267.8083, "MEAN_ANOMALY": 106.949, "EPHEMERIS_TYPE": 0, "CLASSIFICATION_TYPE": "U", "NORAD_CAT_ID": 34918, "ELEMENT_SET_NO": 999, "REV_AT_EPOCH": 65430, "BSTAR": 0.001315247, "MEAN_MOTION_DOT": 6.521e-05, "MEAN_MOTION_DDOT": 0}, "tle": {"line1": "1 34918U 93036ADP 25353.16013388  .00006521  00000+0  13152-2 0  9991", "line2": "2 34918  74.0713 301.3767 0033226 267.8083 106.9490 14.61304419654306"}}, "geometry": {"type": "Point", "coordinates": [-69.9825137211248, -22.91472981132637]}}, {"type": "Feature", "properties": {"norad_id": 34924, "name": "COSMOS 2251 DEB", "group": "cosmos-2251-debris", "lat": -61.02501371455569, "lon": 41.6555563922241, "alt_km": 728.3547225778484, "timestamp": "2025-12-21T11:31:43.254978+00:00", "meta": {"OBJECT_NAME": "COSMOS 2251 DEB", "OBJECT_ID": "1993-036ADV", "EPOCH": "2025-12-20T23:28:59.668032", "MEAN_MOTION": 14.60097055, "ECCENTRICITY": 0.005367, "INCLINATION": 74.0409, "RA_OF_ASC_NODE": 73.7294, "ARG_OF_PERICENTER": 156.3257, "MEAN_ANOMALY": 20.7829, "EPHEMERIS_TYPE": 0, "CLASSIFICATION_TYPE": "U", "NORAD_CAT_ID": 34924, "ELEMENT_SET_NO": 999, "REV_AT_EPOCH": 87843, "BSTAR": 0.00054642, "MEAN_MOTION_DOT": 2.652e-05, "MEAN_MOTION_DDOT": 0}, "tle": {"line1": "1 34924U 93036ADV 25354.97846838  .00002652  00000+0  54642-3 0  9993", "line2": "2 34924  74.0409  73.7294 0053670 156.3257  20.7829 14.60097055878435"}}, "geometry": {"type": "Point", "coordinates": [41.6555563922241, -61.02501371455569]}}, {"type": "Feature", "properties": {"norad_id": 34944, "name": "COSMOS 2251 DEB", "group": "cosmos-2251-debris", "lat": 34.87692301713607, "lon": -131.99723226463104, "alt_km": 698.4667226806841, "timestamp": "2025-12-21T11:31:43.254988+00:00", "meta": {"OBJECT_NAME": "COSMOS 2251 DEB", "OBJECT_ID": "1993-036ADX", "EPOCH": "2025-12-17T02:06:11.847168", "MEAN_MOTION": 14.14195665, "ECCENTRICITY": 0.02198727, "INCLINATION": 73.7495, "RA_OF_ASC_NODE": 224.195, "ARG_OF_PERICENTER": 70.8954, "MEAN_ANOMALY": 291.5851, "EPHEMERIS_TYPE": 0, "CLASSIFICATION_TYPE": "U", "NORAD_CAT_ID": 34944, "ELEMENT_SET_NO": 999, "REV_AT_EPOCH": 64144, "BSTAR": 0.00030334686, "MEAN_MOTION_DOT": 7.03e-06, "MEAN_MOTION_DDOT": 0}, "tle": {"line1": "1 34944U 93036ADX 25351.08763712  .00000703  00000+0  30335-3 0  9991", "line2": "2 34944  73.7495 224.1950 0219872  70.8954 291.5851 14.14195665641448"}}, "geometry": {"type": "Point", "coordinates": [-131.99723226463104, 34.87692301713607]}}, {"type": "Feature", "properties": {"norad_id": 34946, "name": "COSMOS 2251 DEB", "group": "cosmos-2251-debris", "lat": -19.788170834944317, "lon": 151.28044029006057, "alt_km": 697.5952202482322, "timestamp": "2025-12-21T11:31:43.254998+00:00", "meta": {"OBJECT_NAME": "COSMOS 2251 DEB", "OBJECT_ID": "1993-036ADZ", "EPOCH": "2025-12-20T14:54:46.280736", "MEAN_MOTION": 14.62033137, "ECCENTRICITY": 0.0048556, "INCLINATION": 74.0223, "RA_OF_ASC_NODE": 327.0088, "ARG_OF_PERICENTER": 101.7315, "MEAN_ANOMALY": 258.9305, "EPHEMERIS_TYPE": 0, "CLASSIFICATION_TYPE": "U", "NORAD_CAT_ID": 34946, "ELEMENT_SET_NO": 999, "REV_AT_EPOCH": 88324, "BSTAR": 0.00036557, "MEAN_MOTION_DOT": 1.835e-05, "MEAN_MOTION_DDOT": 0}, "tle": {"line1": "1 34946U 93036ADZ 25354.62136899  .00001835  00000+0  36557-3 0  9995", "line2": "2 34946  74.0223 327.0088 0048556 101.7315 258.9305 14.62033137883247"}}, "geometry": {"type": "Point", "coordinates": [151.28044029006057, -19.788170834944317]}}, {"type": "Feature", "properties": {"norad_id": 34949, "name": "COSMOS 2251 DEB", "group": "cosmos-2251-debris", "lat": 60.973374857760696, "lon": -118.50909335977735, "alt_km": 671.0164874326483, "timestamp": "2025-12-21T11:31:43.255009+00:00", "meta": {"OBJECT_NAME": "COSMOS 2251 DEB", "OBJECT_ID": "1993-036AEC", "EPOCH": "2025-12-19T23:10:09.715008", "MEAN_MOTION": 14.74045348, "ECCENTRICITY": 0.0080206, "INCLINATION": 74.0194, "RA_OF_ASC_NODE": 95.5416, "ARG_OF_PERICENTER": 239.3679, "MEAN_ANOMALY": 119.957, "EPHEMERIS_TYPE": 0, "CLASSIFICATION_TYPE": "U", "NORAD_CAT_ID": 34949, "ELEMENT_SET_NO": 999, "REV_AT_EPOCH": 88468, "BSTAR": 0.00035104, "MEAN_MOTION_DOT": 2.396e-05, "MEAN_MOTION_DDOT": 0}, "tle": {"line1": "1 34949U 93036AEC 25353.96539022  .00002396  00000+0  35104-3 0  9999", "line2": "2 34949  74.0194  95.5416 0080206 239.3679 119.9570 14.74045348884687"}}, "geometry": {"type": "Point", "coordinates": [-118.50909335977735, 60.973374857760696]}}, {"type": "Feature", "properties": {"norad_id": 34953, "name": "COSMOS 2251 DEB", "group": "cosmos-2251-debris", "lat": -63.426815500398625, "lon": -24.134485415906372, "alt_km": 655.7438255421439, "timestamp": "2025-12-21T11:31:43.255019+00:00", "meta": {"OBJECT_NAME": "COSMOS 2251 DEB", "OBJECT_ID": "1993-036AEG", "EPOCH": "2025-12-20T12:00:10.528704", "MEAN_MOTION": 14.69018234, "ECCENTRICITY": 0.00585264, "INCLINATION": 74.0926, "RA_OF_ASC_NODE": 12.518, "ARG_OF_PERICENTER": 2.3032, "MEAN_ANOMALY": 148.1108, "EPHEMERIS_TYPE": 0, "CLASSIFICATION_TYPE": "U", "NORAD_CAT_ID": 34953, "ELEMENT_SET_NO": 999, "REV_AT_EPOCH": 88242, "BSTAR": 0.00052437151, "MEAN_MOTION_DOT": 3.125e-05, "MEAN_MOTION_DDOT": 0}, "tle": {"line1": "1 34953U 93036AEG 25354.50012186  .00003125  00000+0  52437-3 0  9991", "line2": "2 34953  74.0926  12.5180 0058526   2.3032 148.1108 14.69018234882422"}}, "geometry": {"type": "Point", "coordinates": [-24.134485415906372, -63.426815500398625]}}, {"type": "Feature", "properties": {"norad_id": 34955, "name": "COSMOS 2251 DEB", "group": "cosmos-2251-debris", "lat": -18.940814335315903, "lon": -136.91386698314952, "alt_km": 530.5800151017747, "timestamp": "2025-12-21T11:31:43.255029+00:00", "meta": {"OBJECT_NAME": "COSMOS 2251 DEB", "OBJECT_ID": "1993-036AEJ", "EPOCH": "2025-12-20T00:24:58.893120", "MEAN_MOTION": 15.00658938, "ECCENTRICITY": 0.00779123, "INCLINATION": 74.0366, "RA_OF_ASC_NODE": 231.6989, "ARG_OF_PERICENTER": 299.5962, "MEAN_ANOMALY": 59.7477, "EPHEMERIS_TYPE": 0, "CLASSIFICATION_TYPE": "U", "NORAD_CAT_ID": 34955, "ELEMENT_SET_NO": 999, "REV_AT_EPOCH": 90143, "BSTAR": 0.00046776562, "MEAN_MOTION_DOT": 6.274e-05, "MEAN_MOTION_DDOT": 0}, "tle": {"line1": "1 34955U 93036AEJ 25354.01734830  .00006274  00000+0  46777-3 0  9994", "line2": "2 34955  74.0366 231.6989 0077912 299.5962  59.7477 15.00658938901431"}}, "geometry": {"type": "Point", "coordinates": [-136.91386698314952, -18.940814335315903]}}]}